[{"OBJECT_NAME":"LEMUR-2-BALTO","OBJECT_ID":"2025-052BH","EPOCH":"2026-03-09T16:40:42.002112","MEAN_MOTION":14.98934076,"ECCENTRICITY":0.00022794,"INCLINATION":97.6978,"RA_OF_ASC_NODE":323.5166,"ARG_OF_PERICENTER":359.2852,"MEAN_ANOMALY":0.8367,"EPHEMERIS_TYPE":0,"CLASSIFICATION_TYPE":"U","NORAD_CAT_ID":63395,"ELEMENT_SET_NO":999,"REV_AT_EPOCH":5385,"BSTAR":0.00063455958,"MEAN_MOTION_DOT":7.621e-5,"MEAN_MOTION_DDOT":0},{"OBJECT_NAME":"STARLINK-33983","OBJECT_ID":"2025-098Y","EPOCH":"2026-03-09T21:26:21.910560","MEAN_MOTION":14.98330697,"ECCENTRICITY":0.00028342,"INCLINATION":70.0001,"RA_OF_ASC_NODE":273.914,"ARG_OF_PERICENTER":265.8218,"MEAN_ANOMALY":94.2617,"EPHEMERIS_TYPE":0,"CLASSIFICATION_TYPE":"U","NORAD_CAT_ID":63948,"ELEMENT_SET_NO":999,"REV_AT_EPOCH":4658,"BSTAR":0.00012182006,"MEAN_MOTION_DOT":1.361e-5,"MEAN_MOTION_DDOT":0}]
