LEMUR-2-BALTO           
1 63395U 25052BH  26068.69493058  .00007621  00000+0  63456-3 0  9998
2 63395  97.6978 323.5166 0002279 359.2852   0.8367 14.98934076 53850
STARLINK-33983          
1 63948U 25098Y   26068.89330914  .00001361  00000+0  12182-3 0  9990
2 63948  70.0001 273.9140 0002834 265.8218  94.2617 14.98330697 46587
